satname,norad_id,inclination_deg,eccentricity,mean_motion_rev_per_day,perigee_km,apogee_km,l1,l2
STARLINK-1184,45098,53.0524,0.0002277,15.08155643,540.2603076434652,543.4116633410576,1 45098U 20006BG  26024.43383739  .00024561  00000+0  15850-2 0  9996,2 45098  53.0524  85.0087 0002277  12.4704 347.6342 15.08155643330352
STARLINK-1193,45100,53.0531,0.0001215,15.4249413,437.9227894989426,439.5792932930026,1 45100U 20006BJ  26024.58335647  .00569254  00000+0  12009-1 0  9996,2 45100  53.0531  81.6798 0001215  88.4421 305.4731 15.42494130  5735
STARLINK-1143,45179,53.05,0.0002799,15.53505791,404.60057177800445,408.3986113419596,1 45179U 20012B   26024.48962045  .00150860  00000+0  22971-2 0  9995,2 45179  53.0500 184.4961 0002799 186.3993 173.6981 15.53505791329033
STARLINK-1202,45183,53.1349,0.000172,15.24771618,490.28973393731667,492.65287919477487,1 45183U 20012F   26024.58335647  .00981342  00000+0  36001-1 0  9998,2 45183  53.1349 244.0088 0001720 100.9323 221.7828 15.24771618  5773
STARLINK-1216,45185,53.1298,0.000171,15.23693762,493.53536013303074,495.88587401807035,1 45185U 20012H   26024.58335647  .01580951  00000+0  59062-1 0  9994,2 45185  53.1298 244.0071 0001710  88.7849 274.9537 15.23693762  5842
STARLINK-1225,45187,53.1097,0.0001633,15.19111492,507.3999912865347,509.64917495958343,1 45187U 20012K   26024.58335647  .01760081  00000+0  75543-1 0  9992,2 45187  53.1097 244.3174 0001633 105.2225 346.1685 15.19111492  5830
STARLINK-1230,45189,53.1069,0.000173,15.18418616,509.4276566871922,511.81116640558685,1 45189U 20012M   26024.58335647  .01753684  00000+0  76807-1 0  9999,2 45189  53.1069 244.3326 0001730  88.9652 334.9358 15.18418616  5771
STARLINK-1234,45190,53.05,0.0011469,15.52240779,402.39969634940917,417.9707498647722,1 45190U 20012N   26023.91268955  .00234831  00000+0  36911-2 0  9994,2 45190  53.0500 182.4630 0011469 160.0751 200.0708 15.52240779328900
STARLINK-1269,45197,53.1134,0.0001686,15.19796138,505.2954583081673,507.61694313545104,1 45197U 20012V   26024.58335647  .01586103  00000+0  66373-1 0  9995,2 45197  53.1134 244.2269 0001686  90.8285 330.7805 15.19796138  5839
STARLINK-1154,45198,53.0517,0.0001707,15.38564894,449.1866076462502,451.5178538696309,1 45198U 20012W   26023.91457276  .00040159  00000+0  10439-2 0  9993,2 45198  53.0517 222.4463 0001707 117.8564 242.2612 15.38564894328386
STARLINK-1199,45201,53.0541,0.0001576,15.06392938,546.1417636918786,548.3246403795602,1 45201U 20012Z   26024.28202615  .00004125  00000+0  29573-3 0  9997,2 45201  53.0541 225.9718 0001576  82.7779 277.3389 15.06392938328429
STARLINK-1209,45206,53.0496,0.0015991,15.42962523,426.4727025049451,448.27006141212405,1 45206U 20012AE  26023.83562083  .00039622  00000+0  88715-3 0  9993,2 45206  53.0496 187.6675 0015991 144.5734 215.6337 15.42962523327973
STARLINK-1210,45207,53.0176,0.0007624,15.8463008,312.26189215070553,322.47119595467757,1 45207U 20012AF  26024.58335647  .00310169  00000+0  12720-2 0  9991,2 45207  53.0176 126.1084 0007624 331.1002 261.8403 15.84630080  5973
STARLINK-1231,45212,53.0481,0.0002216,15.17538607,511.7551737104923,514.8094507496726,1 45212U 20012AL  26024.53763980  .00044437  00000+0  21897-2 0  9994,2 45212  53.0481 217.9833 0002216 135.3539 224.7634 15.17538607328510
STARLINK-1271,45217,53.0549,0.0001434,15.06395075,546.2335552473178,548.2197495428245,1 45217U 20012AR  26024.26727095  .00002881  00000+0  21227-3 0  9991,2 45217  53.0549 226.0388 0001434 103.4513 256.6636 15.06395075328429
STARLINK-1191,45222,53.1405,0.0001446,15.26660019,484.81270734476584,486.7977594386639,1 45222U 20012AW  26024.58335647  .01497493  00000+0  51475-1 0  9994,2 45222  53.1405 203.8487 0001446  74.9546 215.4420 15.26660019  5837
STARLINK-1212,45223,53.0541,0.0001686,15.40801969,442.59098479023396,444.8913221035764,1 45223U 20012AX  26024.49001710  .00063686  00000+0  15281-2 0  9994,2 45223  53.0541 200.7313 0001686 145.7235 214.3878 15.40801969328807
STARLINK-1215,45225,53.1575,8.64e-05,15.29357253,477.14016835263556,478.3248626049108,1 45225U 20012AZ  26024.00002315  .00065209  00000+0  22523-2 0  9995,2 45225  53.1575 205.8271 0000864  86.3323  52.6050 15.29357253  5841
STARLINK-1221,45227,53.0655,0.0002655,15.40083416,444.05112798166556,447.674671928542,1 45227U 20012BB  26024.42198135  .00026479  00000+0  65949-3 0  9995,2 45227  53.0655 119.1073 0002655 214.6137 145.4695 15.40083416329886
STARLINK-1222,45228,53.056,9.95e-05,15.45957374,427.8892029446206,429.24373693513826,1 45228U 20012BC  26023.74335264  .00031484  00000+0  64212-3 0  9990,2 45228  53.0560 197.7368 0000995 119.9057 240.2048 15.45957374328663
STARLINK-1226,45229,53.1505,0.0001334,15.28920449,478.12349512084984,479.9529894754942,1 45229U 20012BD  26024.58335647  .01492688  00000+0  47929-1 0  9991,2 45229  53.1505 203.6743 0001334  99.7863  85.1606 15.28920449  5736
STARLINK-1227,45230,53.1276,0.000229,15.23523178,493.6496283767192,496.7976275443252,1 45230U 20012BE  26024.58335647  .01222324  00000+0  46305-1 0  9998,2 45230  53.1276 203.8594 0002290  97.3424   6.2706 15.23523178  5736
STARLINK-1246,45235,53.1213,0.0001324,15.2180485,499.4859196361185,501.3073553433269,1 45235U 20012BK  26024.58335647  .00821307  00000+0  33340-1 0  9993,2 45235  53.1213 243.8459 0001324  94.1143 298.4260 15.21804850  5777
STARLINK-1270,45237,53.0493,0.0005269,15.39764434,443.20925818849446,450.40138240562374,1 45237U 20012BM  26023.89864741  .00032811  00000+0  82250-3 0  9990,2 45237  53.0493 200.3242 0005269 123.5661 236.5846 15.39764434328751
STARLINK-1279,45360,53.0486,0.0007022,15.4809152,417.5340993056079,427.0846461914971,1 45360U 20019A   26024.09421955  .00136885  00000+0  25299-2 0  9998,2 45360  53.0486 313.6107 0007022  66.8564 293.3183 15.48091520323746
STARLINK-1301,45361,53.0481,0.0009933,15.5374965,399.0512053204393,412.52815406231366,1 45361U 20019B   26024.11938608  .00089543  00000+0  13625-2 0  9998,2 45361  53.0481 321.0279 0009933  53.4634 306.7289 15.53749650323654
STARLINK-1262,45366,53.0581,0.0001561,15.06409546,546.1012586347706,548.2633433205365,1 45366U 20019G   26024.23960814 -.00004903  00000+0 -31041-3 0  9992,2 45366  53.0581   6.1660 0001561 107.1847 252.9313 15.06409546323034
STARLINK-1273,45367,53.0551,0.0001059,15.26012009,487.02114770854405,488.4753422034264,1 45367U 20019H   26024.58335647  .01716181  00000+0  60288-1 0  9991,2 45367  53.0551   3.4505 0001059  79.4235 109.2786 15.26012009  5721
STARLINK-1276,45368,53.0567,0.0001125,15.06352078,546.5793176234847,548.1375540965519,1 45368U 20019J   26024.23228625  .00015541  00000+0  10613-2 0  9990,2 45368  53.0567   6.1968 0001125 107.5216 252.5896 15.06352078323030
STARLINK-1277,45369,53.055,8.73e-05,15.40269525,444.7175109619866,445.9088853665853,1 45369U 20019K   26024.58335647  .00024684  00000+0  61188-3 0  9994,2 45369  53.0550   2.6974 0000873  59.6017 312.3007 15.40269525  5832
STARLINK-1281,45370,53.054,0.0001502,15.06420529,546.108462321361,548.1888181276845,1 45370U 20019L   26024.22119034  .00003760  00000+0  27104-3 0  9999,2 45370  53.0540   6.2467 0001502  85.7166 274.3995 15.06420529323038
STARLINK-1300,45374,53.0579,0.0001533,15.06391921,546.1746592905456,548.2979787501572,1 45374U 20019Q   26024.17697254  .00003988  00000+0  28656-3 0  9997,2 45374  53.0579   6.4451 0001533 100.9812 259.1349 15.06391921323027
STARLINK-1302,45375,53.0548,0.0001345,15.3541969,458.7544984444439,460.5938696529529,1 45375U 20019R   26024.58335647  .01300585  00000+0  34034-1 0  9997,2 45375  53.0548   2.0910 0001345  84.1630 101.4485 15.35419690  5830
STARLINK-1304,45376,53.0557,0.0003998,15.41016051,440.3821957060045,445.8364642714632,1 45376U 20019S   26024.18995404  .00055311  00000+0  13203-2 0  9996,2 45376  53.0557   1.2501 0003998  70.0114 290.1320 15.41016051323091
STARLINK-1305,45377,53.0504,0.0005716,15.44471493,429.0382214598076,436.8246348868952,1 45377U 20019T   26024.11468823  .00035617  00000+0  76215-3 0  9990,2 45377  53.0504 345.7148 0005716  22.1669 337.9582 15.44471493323313
STARLINK-1319,45379,53.053,0.0005388,15.49537067,414.41753643441643,421.74113916002625,1 45379U 20019V   26024.14614010  .00074943  00000+0  13312-2 0  9999,2 45379  53.0530 345.2499 0005388  33.9203 326.2149 15.49537067323323
STARLINK-1266,45383,53.0556,0.0001428,15.38751465,448.82522835344844,450.7752872342753,1 45383U 20019Z   26024.58335647  .01380541  00000+0  32278-1 0  9994,2 45383  53.0556 342.2291 0001428  70.8757 192.4241 15.38751465  5835
STARLINK-1267,45384,53.0567,0.0006999,15.41480467,436.9659634161626,446.5124261135952,1 45384U 20019AA  26024.13548156  .00053351  00000+0  12540-2 0  9993,2 45384  53.0567 339.4101 0006999  72.1440 288.0328 15.41480467323395
STARLINK-1272,45386,53.0505,0.0006817,15.46979633,420.9294308673925,430.2056016048282,1 45386U 20019AC  26024.09878139  .00045145  00000+0  88315-3 0  9993,2 45386  53.0505 324.3306 0006817  37.4329 322.7151 15.46979633323605
STARLINK-1274,45387,53.0328,0.0009675,15.40836563,437.03897741415585,450.2391140626596,1 45387U 20019AD  26024.51147473  .00095562  00000+0  22728-2 0  9994,2 45387  53.0328 313.1097 0009675  85.0420 275.1688 15.40836563323792
STARLINK-1280,45388,53.0503,0.0006353,15.55266116,397.07214668035795,405.6861999301582,1 45388U 20019AE  26024.14680339  .00193962  00000+0  27513-2 0  9997,2 45388  53.0503 339.7199 0006353  34.9056 325.2370 15.55266116323380
STARLINK-1283,45389,53.0505,0.0011427,15.46802764,418.31096647650793,433.8613380687111,1 45389U 20019AF  26024.14494563  .00071890  00000+0  14029-2 0  9993,2 45389  53.0505 324.2457 0011427  80.6618 279.5680 15.46802764323615
STARLINK-1284,45390,53.0535,0.0001373,15.41806343,439.8419583884124,441.71443250108223,1 45390U 20019AG  26024.58335647  .00840016  00000+0  18040-1 0  9990,2 45390  53.0535 341.9047 0001373  79.0516 329.7996 15.41806343  5638
